ONEWEB-0140             
1 47286U 20100AE  26064.59203625  .00000146  00000+0  37187-3 0  9999
2 47286  87.9008  11.1983 0001641  86.8883 273.2433 13.12442671251101
ONEWEB-0141             
1 47287U 20100AF  26064.56139815 -.00000339  00000+0 -97799-3 0  9997
2 47287  87.9000  11.2116 0001907  69.5942 290.5391 13.12442297251088
ONEWEB-0142             
1 47288U 20100AG  26064.54982855 -.00000003  00000+0 -43865-4 0  9990
2 47288  87.8998  11.2385 0002170  72.6597 287.4769 13.12442606251073
ONEWEB-0143             
1 47289U 20100AH  26064.40736596 -.00000347  00000+0 -99859-3 0  9999
2 47289  87.8999  11.2631 0001819  79.5539 280.5794 13.12441876251036
ONEWEB-0144             
1 47290U 20100AJ  26064.22608086  .00000081  00000+0  19058-3 0  9999
2 47290  87.8997  11.2691 0002203  85.3692 274.7688 13.12453980250939
ONEWEB-0145             
1 47291U 20100AK  26064.27353100 -.00000154  00000+0 -46335-3 0  9990
2 47291  87.8999  11.2977 0001911  80.6994 279.4351 13.12442907251136
ONEWEB-0146             
1 47292U 20100AL  26064.57507217 -.00000245  00000+0 -71565-3 0  9998
2 47292  87.8998  11.2228 0001453  81.7574 278.3719 13.12442162251085
ONEWEB-0147             
1 47293U 20100AM  26064.54121597  .00000284  00000+0  75489-3 0  9999
2 47293  87.9003  11.2092 0001909  87.0749 273.0598 13.12442151250974
ONEWEB-0115             
1 48042U 21025A   26064.49800674 -.00000073  00000+0 -23589-3 0  9995
2 48042  87.9046 340.8422 0001684  78.2056 281.9262 13.13470465239989
ONEWEB-0152             
1 48043U 21025B   26064.20684014  .00000391  00000+0  10363-2 0  9999
2 48043  87.9042 340.9013 0001606  79.6364 280.4946 13.13469759239903
ONEWEB-0153             
1 48044U 21025C   26064.18483382 -.00000197  00000+0 -57468-3 0  9996
2 48044  87.9042 340.9110 0001808  79.2889 280.8444 13.13470051239896
ONEWEB-0154             
1 48045U 21025D   26064.18144413 -.00000221  00000+0 -63955-3 0  9992
2 48045  87.9042 340.9094 0001721  82.0851 278.0474 13.13471124239853
ONEWEB-0116             
1 48046U 21025E   26064.22038383  .00000365  00000+0  96497-3 0  9990
2 48046  87.9051 340.8891 0001585  82.7107 277.4202 13.13469353240009
ONEWEB-0150             
1 48047U 21025F   26064.19668276  .00000107  00000+0  25782-3 0  9990
2 48047  87.9048 340.8911 0001756  71.7259 288.4061 13.13470224239894
ONEWEB-0107             
1 48048U 21025G   26064.50308497  .00000084  00000+0  19379-3 0  9991
2 48048  87.9047 340.8261 0002006  76.0512 284.0840 13.13469463239914
ONEWEB-0101             
1 48049U 21025H   26064.23731456 -.00000026  00000+0 -10720-3 0  9996
2 48049  87.9040 340.9046 0001841  79.7677 280.3660 13.13468921239858
