[{"OBJECT_NAME":"ONEWEB-0140","OBJECT_ID":"2020-100AE","EPOCH":"2026-03-05T14:12:31.932000","MEAN_MOTION":13.12442671,"ECCENTRICITY":0.0001641,"INCLINATION":87.9008,"RA_OF_ASC_NODE":11.1983,"ARG_OF_PERICENTER":86.8883,"MEAN_ANOMALY":273.2433,"EPHEMERIS_TYPE":0,"CLASSIFICATION_TYPE":"U","NORAD_CAT_ID":47286,"ELEMENT_SET_NO":999,"REV_AT_EPOCH":25110,"BSTAR":0.00037186908,"MEAN_MOTION_DOT":1.46e-6,"MEAN_MOTION_DDOT":0},{"OBJECT_NAME":"ONEWEB-0141","OBJECT_ID":"2020-100AF","EPOCH":"2026-03-05T13:28:24.800160","MEAN_MOTION":13.12442297,"ECCENTRICITY":0.00019071,"INCLINATION":87.9,"RA_OF_ASC_NODE":11.2116,"ARG_OF_PERICENTER":69.5942,"MEAN_ANOMALY":290.5391,"EPHEMERIS_TYPE":0,"CLASSIFICATION_TYPE":"U","NORAD_CAT_ID":47287,"ELEMENT_SET_NO":999,"REV_AT_EPOCH":25108,"BSTAR":-0.00097799417,"MEAN_MOTION_DOT":-3.39e-6,"MEAN_MOTION_DDOT":0},{"OBJECT_NAME":"ONEWEB-0142","OBJECT_ID":"2020-100AG","EPOCH":"2026-03-05T13:11:45.186720","MEAN_MOTION":13.12442606,"ECCENTRICITY":0.00021706,"INCLINATION":87.8998,"RA_OF_ASC_NODE":11.2385,"ARG_OF_PERICENTER":72.6597,"MEAN_ANOMALY":287.4769,"EPHEMERIS_TYPE":0,"CLASSIFICATION_TYPE":"U","NORAD_CAT_ID":47288,"ELEMENT_SET_NO":999,"REV_AT_EPOCH":25107,"BSTAR":-4.3865138e-5,"MEAN_MOTION_DOT":-3.0e-8,"MEAN_MOTION_DDOT":0},{"OBJECT_NAME":"ONEWEB-0143","OBJECT_ID":"2020-100AH","EPOCH":"2026-03-05T09:46:36.418944","MEAN_MOTION":13.12441876,"ECCENTRICITY":0.00018197,"INCLINATION":87.8999,"RA_OF_ASC_NODE":11.2631,"ARG_OF_PERICENTER":79.5539,"MEAN_ANOMALY":280.5794,"EPHEMERIS_TYPE":0,"CLASSIFICATION_TYPE":"U","NORAD_CAT_ID":47289,"ELEMENT_SET_NO":999,"REV_AT_EPOCH":25103,"BSTAR":-0.00099858748,"MEAN_MOTION_DOT":-3.47e-6,"MEAN_MOTION_DDOT":0},{"OBJECT_NAME":"ONEWEB-0144","OBJECT_ID":"2020-100AJ","EPOCH":"2026-03-05T05:25:33.386304","MEAN_MOTION":13.1245398,"ECCENTRICITY":0.00022033,"INCLINATION":87.8997,"RA_OF_ASC_NODE":11.2691,"ARG_OF_PERICENTER":85.3692,"MEAN_ANOMALY":274.7688,"EPHEMERIS_TYPE":0,"CLASSIFICATION_TYPE":"U","NORAD_CAT_ID":47290,"ELEMENT_SET_NO":999,"REV_AT_EPOCH":25093,"BSTAR":0.00019057845,"MEAN_MOTION_DOT":8.1e-7,"MEAN_MOTION_DDOT":0},{"OBJECT_NAME":"ONEWEB-0145","OBJECT_ID":"2020-100AK","EPOCH":"2026-03-05T06:33:53.078400","MEAN_MOTION":13.12442907,"ECCENTRICITY":0.00019116,"INCLINATION":87.8999,"RA_OF_ASC_NODE":11.2977,"ARG_OF_PERICENTER":80.6994,"MEAN_ANOMALY":279.4351,"EPHEMERIS_TYPE":0,"CLASSIFICATION_TYPE":"U","NORAD_CAT_ID":47291,"ELEMENT_SET_NO":999,"REV_AT_EPOCH":25113,"BSTAR":-0.00046335314,"MEAN_MOTION_DOT":-1.54e-6,"MEAN_MOTION_DDOT":0},{"OBJECT_NAME":"ONEWEB-0146","OBJECT_ID":"2020-100AL","EPOCH":"2026-03-05T13:48:06.235488","MEAN_MOTION":13.12442162,"ECCENTRICITY":0.00014533,"INCLINATION":87.8998,"RA_OF_ASC_NODE":11.2228,"ARG_OF_PERICENTER":81.7574,"MEAN_ANOMALY":278.3719,"EPHEMERIS_TYPE":0,"CLASSIFICATION_TYPE":"U","NORAD_CAT_ID":47292,"ELEMENT_SET_NO":999,"REV_AT_EPOCH":25108,"BSTAR":-0.00071564688,"MEAN_MOTION_DOT":-2.45e-6,"MEAN_MOTION_DDOT":0},{"OBJECT_NAME":"ONEWEB-0147","OBJECT_ID":"2020-100AM","EPOCH":"2026-03-05T12:59:21.059808","MEAN_MOTION":13.12442151,"ECCENTRICITY":0.00019097,"INCLINATION":87.9003,"RA_OF_ASC_NODE":11.2092,"ARG_OF_PERICENTER":87.0749,"MEAN_ANOMALY":273.0598,"EPHEMERIS_TYPE":0,"CLASSIFICATION_TYPE":"U","NORAD_CAT_ID":47293,"ELEMENT_SET_NO":999,"REV_AT_EPOCH":25097,"BSTAR":0.00075488771,"MEAN_MOTION_DOT":2.84e-6,"MEAN_MOTION_DDOT":0},{"OBJECT_NAME":"ONEWEB-0115","OBJECT_ID":"2021-025A","EPOCH":"2026-03-05T11:57:07.782336","MEAN_MOTION":13.13470465,"ECCENTRICITY":0.00016847,"INCLINATION":87.9046,"RA_OF_ASC_NODE":340.8422,"ARG_OF_PERICENTER":78.2056,"MEAN_ANOMALY":281.9262,"EPHEMERIS_TYPE":0,"CLASSIFICATION_TYPE":"U","NORAD_CAT_ID":48042,"ELEMENT_SET_NO":999,"REV_AT_EPOCH":23998,"BSTAR":-0.00023588573,"MEAN_MOTION_DOT":-7.3e-7,"MEAN_MOTION_DDOT":0},{"OBJECT_NAME":"ONEWEB-0152","OBJECT_ID":"2021-025B","EPOCH":"2026-03-05T04:57:50.988096","MEAN_MOTION":13.13469759,"ECCENTRICITY":0.00016062,"INCLINATION":87.9042,"RA_OF_ASC_NODE":340.9013,"ARG_OF_PERICENTER":79.6364,"MEAN_ANOMALY":280.4946,"EPHEMERIS_TYPE":0,"CLASSIFICATION_TYPE":"U","NORAD_CAT_ID":48043,"ELEMENT_SET_NO":999,"REV_AT_EPOCH":23990,"BSTAR":0.0010363462,"MEAN_MOTION_DOT":3.91e-6,"MEAN_MOTION_DDOT":0},{"OBJECT_NAME":"ONEWEB-0153","OBJECT_ID":"2021-025C","EPOCH":"2026-03-05T04:26:09.642048","MEAN_MOTION":13.13470051,"ECCENTRICITY":0.0001808,"INCLINATION":87.9042,"RA_OF_ASC_NODE":340.911,"ARG_OF_PERICENTER":79.2889,"MEAN_ANOMALY":280.8444,"EPHEMERIS_TYPE":0,"CLASSIFICATION_TYPE":"U","NORAD_CAT_ID":48044,"ELEMENT_SET_NO":999,"REV_AT_EPOCH":23989,"BSTAR":-0.00057467604,"MEAN_MOTION_DOT":-1.97e-6,"MEAN_MOTION_DDOT":0},{"OBJECT_NAME":"ONEWEB-0154","OBJECT_ID":"2021-025D","EPOCH":"2026-03-05T04:21:16.772832","MEAN_MOTION":13.13471124,"ECCENTRICITY":0.00017216,"INCLINATION":87.9042,"RA_OF_ASC_NODE":340.9094,"ARG_OF_PERICENTER":82.0851,"MEAN_ANOMALY":278.0474,"EPHEMERIS_TYPE":0,"CLASSIFICATION_TYPE":"U","NORAD_CAT_ID":48045,"ELEMENT_SET_NO":999,"REV_AT_EPOCH":23985,"BSTAR":-0.00063955089,"MEAN_MOTION_DOT":-2.21e-6,"MEAN_MOTION_DDOT":0},{"OBJECT_NAME":"ONEWEB-0116","OBJECT_ID":"2021-025E","EPOCH":"2026-03-05T05:17:21.162912","MEAN_MOTION":13.13469353,"ECCENTRICITY":0.0001585,"INCLINATION":87.9051,"RA_OF_ASC_NODE":340.8891,"ARG_OF_PERICENTER":82.7107,"MEAN_ANOMALY":277.4202,"EPHEMERIS_TYPE":0,"CLASSIFICATION_TYPE":"U","NORAD_CAT_ID":48046,"ELEMENT_SET_NO":999,"REV_AT_EPOCH":24000,"BSTAR":0.00096497385,"MEAN_MOTION_DOT":3.65e-6,"MEAN_MOTION_DDOT":0},{"OBJECT_NAME":"ONEWEB-0150","OBJECT_ID":"2021-025F","EPOCH":"2026-03-05T04:43:13.390464","MEAN_MOTION":13.13470224,"ECCENTRICITY":0.00017561,"INCLINATION":87.9048,"RA_OF_ASC_NODE":340.8911,"ARG_OF_PERICENTER":71.7259,"MEAN_ANOMALY":288.4061,"EPHEMERIS_TYPE":0,"CLASSIFICATION_TYPE":"U","NORAD_CAT_ID":48047,"ELEMENT_SET_NO":999,"REV_AT_EPOCH":23989,"BSTAR":0.0002578168,"MEAN_MOTION_DOT":1.07e-6,"MEAN_MOTION_DDOT":0},{"OBJECT_NAME":"ONEWEB-0107","OBJECT_ID":"2021-025G","EPOCH":"2026-03-05T12:04:26.541408","MEAN_MOTION":13.13469463,"ECCENTRICITY":0.00020062,"INCLINATION":87.9047,"RA_OF_ASC_NODE":340.8261,"ARG_OF_PERICENTER":76.0512,"MEAN_ANOMALY":284.084,"EPHEMERIS_TYPE":0,"CLASSIFICATION_TYPE":"U","NORAD_CAT_ID":48048,"ELEMENT_SET_NO":999,"REV_AT_EPOCH":23991,"BSTAR":0.00019378858,"MEAN_MOTION_DOT":8.4e-7,"MEAN_MOTION_DDOT":0},{"OBJECT_NAME":"ONEWEB-0101","OBJECT_ID":"2021-025H","EPOCH":"2026-03-05T05:41:43.977984","MEAN_MOTION":13.13468921,"ECCENTRICITY":0.00018419,"INCLINATION":87.904,"RA_OF_ASC_NODE":340.9046,"ARG_OF_PERICENTER":79.7677,"MEAN_ANOMALY":280.366,"EPHEMERIS_TYPE":0,"CLASSIFICATION_TYPE":"U","NORAD_CAT_ID":48049,"ELEMENT_SET_NO":999,"REV_AT_EPOCH":23985,"BSTAR":-0.00010720353,"MEAN_MOTION_DOT":-2.6e-7,"MEAN_MOTION_DDOT":0}]
